0 SL-12 DEB
1 26795U 90102G   13281.01053921 -.00000023  00000-0  10000-3 0  3047
2 26795 046.5346 299.4836 1891649 234.8323 106.4556 09.26844316434330
0 SL-12 DEB
1 26795U 90102G   13283.44606355 -.00012963  00000-0 -45779+0 0  3056
2 26795 046.4186 294.9296 1818736 244.2763 307.9081 09.26960298434553
0 SL-12 DEB
1 26795U 90102G   13286.46202834 -.00000026  00000-0  00000+0 0  3060
2 26795 046.4206 289.5108 1794960 250.5455 290.3030 09.27048871434833
0 SL-12 DEB
1 26795U 90102G   13288.39999137 -.00000026  00000-0  00000+0 0  3074
2 26795 046.4139 286.0445 1776855 255.0538 275.6470 09.27083638435014
0 SL-12 DEB
1 26795U 90102G   13292.01919542 -.00000025  00000-0  00000+0 0  3080
2 26795 046.4034 279.5860 1741448 263.5112 110.2494 09.27036358435352
0 SL-12 DEB
1 26795U 90102G   13293.96046481 -.00000026  00000-0  00000+0 0  3090
2 26795 046.4369 276.1802 1771065 266.5802 108.2019 09.26775758435532
0 SL-12 DEB
1 26795U 90102G   13294.92863786 -.00000026  00000-0  00000+0 0  3104
2 26795 046.3988 274.4344 1729821 270.4977 096.0761 09.26789713435624
